G2695   20.1   0.15 K1794 138.46694  151.62189  333.37929    2.18911  0.6368038  0.31908698   2.1209479  1 MPO123171   141   3 2000-2004 0.43 M-v 3Eh MPCW       C803 (162695) 2000 UL11          20040512
G2783   20.8   0.15 K1794  64.72022  339.09273   64.96377    7.26280  0.2321497  0.65497137   1.3131707  1 MPO341530   122   6 2000-2015 0.58 M-h 3Eh MPCLINUX   8804 (162783) 2000 YJ11          20150618
G2825   18.0   0.15 K1794 334.47711   78.74794  159.86312    9.07615  0.7433818  0.41711282   1.7740548  1 MPO372188   231   9 2000-2015 0.41 M-h 3Eh MPCLINUX   9803 (162825) 2001 BO61          20151023
G2882   18.8   0.15 K1794 263.70542   45.94492  341.21601    6.49730  0.5753740  0.86361193   1.0920863  2 MPO407248   288  11 2000-2017 0.46 M-v 3Eh MPCLINUX   8803 (162882) 2001 FD58          20170416
G2922   20.8   0.15 K1794 281.28541  291.20465  284.24674   10.29924  0.3818159  0.65120979   1.3182226  1 MPO123252   159   4 2001-2007 0.41 M-v 3Eh MPCW       C803 (162922) 2001 OY13          20070812
G2979   18.0   0.15 K1794 198.19418  326.03287  311.60644   17.08465  0.5440751  0.33912362   2.0365607  1 MPO123271   130   4 2001-2007 0.54 M-v 3Eh MPCW       D803 (162979) 2001 RA12          20070823
G2998   17.9   0.15 K1794 302.66604  186.31541  285.42462    1.67884  0.4738006  0.36878603   1.9258380  0 MPO422616   936   7 1993-2017 0.42 M-v 3Eh MPCLINUX   9804 (162998) 2001 SK162         20171029
G3014   17.5   0.15 K1794 215.43400   27.52125   58.69091    9.94887  0.4456273  0.41269171   1.7867024  1 MPO345285   266   7 1990-2015 0.47 M-h 3Eh MPCLINUX   9803 (163014) 2001 UA5           20150812
G3026   21.0   0.15 K1794 171.32401  294.40589  247.90996   11.85879  0.3652585  0.66718769   1.2970918  2 MPO310253    65   4 2001-2014 0.55 M-h 3Eh MPCLINUX   8803 (163026) 2001 XR30          20140930
G3051   16.3   0.15 K1794 180.12771  322.35241  247.84047    9.28260  0.5694000  0.28789728   2.2714909  0 MPO422616   397  12 1978-2017 0.52 M-v 3Eh MPCLINUX   9803 (163051) 2001 YJ4           20170923
G3067   19.8   0.15 K1794  97.71109  117.65870   87.44537    7.59915  0.5881808  0.33743499   2.0433494  1 MPO123306    62   3 2002-2005 0.54 M-v 3Eh MPCW       C803 (163067) 2002 AP3           20050118
G3132   18.5   0.15 K1794 126.70296  110.52647  157.76321   48.77928  0.2951767  0.73176366   1.2196133  1 MPO320711   460   6 2002-2014 0.57 M-h 3Eh MPCLINUX   8803 (163132) 2002 CU11          20140912
G3243   16.5   0.15 K1794 213.64971  148.30284  203.60509   20.27758  0.6017456  1.48302895   0.7615580  4 MPO379527   441  10 2002-2016 0.47 M-h 3Eh MPCLINUX   D802 (163243) 2002 FB3           20160508
G3249   18.5   0.15 K1794 216.03100  135.10945  201.75864    6.96888  0.3348586  0.63224050   1.3444599  0 MPO401372  1414   7 2002-2017 0.34 M-h 3Eh MPCLINUX   8803 (163249) 2002 GT            20170116
G3348   20.1   0.15 K1794 322.56985  222.23835  259.50188    5.41460  0.4342925  1.20110503   0.8764936  2 MPO410851   342   6 2002-2016 0.48 M-v 3Eh MPCLINUX   8802 (163348) 2002 NN4           20160828
G3364   18.8   0.15 K1794 277.87966  275.25610  259.97487    4.18855  0.3690662  0.61756992   1.3656685  1 MPO351998   303   8 2001-2015 0.42 M-h 3Eh MPCLINUX   8803 (163364) 2002 OD20          20151008
G3373   18.9   0.15 K1794 196.31748  259.96765  328.95602    1.66853  0.5462581  0.55420551   1.4678741  1 MPO366978   411  10 1995-2015 0.48 M-h 3Eh MPCLINUX   8803 (163373) 2002 PZ39          20151019
G3683   19.0   0.15 K1794 177.68084  281.37209   52.51269   20.62355  0.6882056  0.49774527   1.5768775  2 MPO401374   142   9 2002-2017 0.39 M-h 3Eh MPCLINUX   8803 (163683) 2002 YP2           20170204
G3697   20.0   0.15 K1794   1.03295  353.68212  268.50861    2.95100  0.4728085  0.48286930   1.6090998  0 MPO351999   216  11 2003-2015 0.48 M-h 3Eh MPCLINUX   8803 (163697) 2003 EF54          20150116
G3818   18.4   0.15 K1794 348.18476  245.84035  241.07614   10.38989  0.3543833  0.72321663   1.2292035  1 MPO341533   363   7 2003-2015 0.41 M-h 3Eh MPCLINUX   8803 (163818) 2003 RX7           20150611
G3899   17.3   0.15 K1794 322.66894  326.47330  274.05048    8.45915  0.2106219  1.30921096   0.8275539  2 MPO372193   408   8 2000-2015 0.38 M-h 3Eh MPCLINUX   9802 (163899) 2003 SD220         20151221
G4121   16.2   0.15 K1794 202.75885   91.04500   38.33523   44.06392  0.2919171  0.84330021   1.1095526  0 MPO422620   907  10 1982-2017 0.57 M-v 3Eh MPCW       9803 (164121) 2003 YT1           20171018
G4202   20.8   0.15 K1794 350.60468   56.11658  342.94467    4.66969  0.2792437  1.00324339   0.9882463  2 MPO410853   408  10 2004-2017 0.45 M-v 3Eh MPCLINUX   8802 (164202) 2004 EW            20170527
G4207   21.1   0.15 K1794  25.27248  280.14524   38.59613   13.65005  0.1361047  0.98349349   1.0014326  2 MPO422620   207  13 2001-2017 0.49 M-v 3Eh MPCLINUX   8803 (164207) 2004 GU9           20171028
G4211   19.4   0.15 K1794  17.40907  270.21317   67.78263    2.25825  0.4231237  0.45835558   1.6659720  0 MPO422620   322   4 2004-2017 0.55 M-v 3Eh MPCW       8803 (164211) 2004 JA27          20171027
G4216   17.2   0.15 K1794  75.57891  326.28597  295.11544   19.93614  0.5651237  0.31224388   2.1518241  1 MPO417872   373   7 2004-2017 0.45 M-v 3Eh MPCLINUX   9803 (164216) 2004 OT11          20170920
G4400   17.4   0.15 K1794  48.01332  202.92364  219.01230    6.62765  0.4677949  0.46230072   1.6564805  0 MPO385727   656  10 1978-2016 0.44 M-h 3Eh MPCLINUX   9803 (164400) 2005 GN59          20160708
G8318   18.9   0.15 K1794 356.86850  139.80132  349.19009    6.49212  0.5425564  0.30994094   2.1624700  1 MPO126836    43   4 1989-2007 0.68 M-v 3Eh MPCALB     C803 (168318) 1989 DA            20071108
H0086   18.0   0.15 K1794 175.78607  120.12084   75.66440    2.13014  0.6254925  0.37461265   1.9058165  1 MPO385749   268   8 2002-2016 0.50 M-h 3Eh MPCLINUX   9803 (170086) 2002 XR14          20160717
H0903   18.1   0.15 K1794  49.29675  115.33225   87.76038    8.26255  0.6032228  0.63794234   1.3364368  1 MPO396366   373  10 2002-2016 0.43 M-h 3Eh MPCLINUX   9803 (170903) 2004 WS2           20161202
H1576   18.6   0.15 K1794   6.12410   61.59327  208.12088   17.29339  0.5835074  0.87289071   1.0843333  2 MPO422652   308  11 1999-2017 0.72 M-v 3Eh MPCLINUX   8803 (171576) 1999 VP11          20171030
H1839   19.1   0.15 K1794 107.56404  321.89571  226.69081   17.07324  0.3109683  0.55822756   1.4608149  1 MPO410875   461   7 2001-2017 0.43 M-v 3Eh MPCLINUX   8804 (171839) 2001 JM1           20170529
H2678   18.7   0.15 K1794  73.44721  127.22111   77.05594    2.70242  0.6898717  0.23611186   2.5925324  0 MPO131746   327   3 2003-2007 0.39 M-v 3Eh MPCW       C803 (172678) 2003 YM137         20071216
H3561   18.3   0.15 K1794 299.48387  211.37382  137.24949   28.00002  0.3108035  0.56581471   1.4477266  1 MPO407321   337   8 2000-2017 0.48 M-v 3Eh MPCLINUX   8803 (173561) 2000 YV137         20170326
H5706   18.4   0.15 K1794 184.78829   24.02872  299.70676    1.99111  0.3498177  0.91080504   1.0540287  1 MPO287742  1590  13 1996-2014 0.44 M-h 3Eh MPCLINUX   8803 (175706) 1996 FG3           20140310
H5729   20.3   0.15 K1794 293.67987  259.19601  124.31981   11.53495  0.4248416  0.68722931   1.2717496  1 MPO407336   170   9 1998-2017 0.47 M-v 3Eh MPCLINUX   8803 (175729) 1998 BB10          20170424
H7049   19.7   0.15 K1794 286.76755  259.59845  127.13413    0.65028  0.6144685  0.58413255   1.4173000  1 MPO299931   256   7 2002-2014 0.53 M-h 3Eh MPCLINUX   8803 (177049) 2003 EE16          20140623
H7614   17.5   0.15 K1794  26.93924  221.45358  104.78984    5.43844  0.5202515  0.37977225   1.8885155  1 MPO376245   214   9 2001-2016 0.47 M-h 3Eh MPCLINUX   9803 (177614) 2004 HK33          20160303
H9806   20.2   0.15 K1794 288.59433  125.64096  335.72817    4.92062  0.5340424  0.38914134   1.8580802  0 MPO236989   301   4 2002-2008 0.54 M-v 3Eh MPCW       C803 (179806) 2002 TD66          20080413
I0186   17.4   0.15 K1794 238.10492  243.05346  178.12165    8.56868  0.6315414  0.26192743   2.4192573  0 MPO227012   439   5 1984-2012 0.43 M-h 3Eh MPCLINUX   D803 (180186) 2003 QZ30          20120329
I4266   19.4   0.15 K1794  30.10896   42.32934  101.16118    3.85144  0.6006770  0.31976852   2.1179331  0 MPO236994   582   5 2004-2011 0.38 M-v 3Eh MPCW       C803 (184266) 2004 VW14          20110523
I5851   18.2   0.15 K1794 255.78384  289.74477  358.69568    8.67176  0.3765638  0.61785509   1.3652483  0 MPO401501  1394  11 2000-2016 0.51 M-v 3Eh MPCW       9803 (185851) 2000 DP107         20161224
I6844   17.4   0.15 K1794 158.93417   54.58835  261.55312    7.77626  0.6723478  0.26008063   2.4306964  0 MPO334127   326   6 2000-2015 0.44 M-h 3Eh MPCLINUX   9803 (186844) 2004 GA1           20150321
I7040   19.2   0.15 K1794 205.99602  243.87586  110.87713    6.03999  0.3225561  0.62397960   1.3563001  0 MPO407410   433   8 2002-2017 0.43 M-v 3Eh MPCLINUX   8803 (187040) 2005 JS108         20170119
I9040   19.9   0.15 K1794 291.41046   63.65251  130.09465   13.09391  0.3825914  0.61264545   1.3729769  2 MPO372324   158   7 2000-2015 0.47 M-h 3Eh MPCLINUX   8803 (189040) 2000 MU1           20151209
I9865   19.4   0.15 K1794 217.70259  224.20094  288.53006   21.61260  0.8053874  0.59136995   1.4057126  3 MPO268171   102   6 2003-2013 1.08 M-h 3Eh MPCLINUX   C803 (189865) 2003 NC            20130714
J2559   20.1   0.15 K1794  42.11048   75.90676  228.16018   10.06119  0.2265085  0.88462493   1.0747231  1 MPO407449   584   5 1998-2017 0.37 M-v 3Eh MPCLINUX   8803 (192559) 1998 VO            20170329
J2563   17.3   0.15 K1794 201.77661  110.68349   68.74401   24.75521  0.4079329  0.56318982   1.4522215  1 MPO422750   657   9 1998-2017 0.44 M-v 3Eh MPCLINUX   9803 (192563) 1998 WZ6           20171029
J2642   16.3   0.15 K1794  89.00856  299.88808  310.04228    6.79144  0.7696184  0.22916228   2.6446850  0 MPO396492   540   8 1995-2016 0.49 M-v 3Eh MPCW       9803 (192642) 1999 RD32          20161204
